IRIDIUM 159             
1 43578U 18061K   23275.09794970  .00000142  00000+0  43651-4 0  9996
2 43578  86.3919 110.1096 0002173  87.4179 272.7265 14.34216860271615
IRIDIUM 180             
1 43922U 19002A   23275.09743585  .00000580  00000+0  20009-3 0  9998
2 43922  86.3978  46.9423 0002104 100.3030 259.8403 14.34220834247268
IRIDIUM 176             
1 43923U 19002B   23275.09288004 -.00001296  00000+0 -20956-3 0  9997
2 43923  86.6103  46.9785 0002081  87.8135 272.3320 14.72241954253726
IRIDIUM 168             
1 43924U 19002C   23275.09109839  .00000574  00000+0  19776-3 0  9990
2 43924  86.3982  46.9944 0002152  95.8406 264.3035 14.34220132247208
IRIDIUM 173             
1 43925U 19002D   23274.86910967  .00000521  00000+0  17896-3 0  9990
2 43925  86.3976  47.0166 0002206  93.7736 266.3712 14.34217466247157
IRIDIUM 169             
1 43926U 19002E   23274.89093491  .00000242  00000+0  72530-4 0  9995
2 43926  86.4178  78.6356 0003990  35.5668 324.5795 14.38610726247993
IRIDIUM 172             
1 43927U 19002F   23275.42091244  .00000609  00000+0  21021-3 0  9995
2 43927  86.3978  46.7908 0002170  95.0696 265.0747 14.34220325247243
IRIDIUM 175             
1 43928U 19002G   23275.08673864  .00002479  00000+0  38921-3 0  9996
2 43928  86.1547  34.7726 0002246  93.2183 266.9290 14.72237581253710
